[{"OBJECT_NAME":"ISS (ZARYA)","OBJECT_ID":"1998-067A","EPOCH":"2026-03-07T18:30:03.892896","MEAN_MOTION":15.4851426,"ECCENTRICITY":0.00081173,"INCLINATION":51.632,"RA_OF_ASC_NODE":81.8427,"ARG_OF_PERICENTER":167.9196,"MEAN_ANOMALY":192.1989,"EPHEMERIS_TYPE":0,"CLASSIFICATION_TYPE":"U","NORAD_CAT_ID":25544,"ELEMENT_SET_NO":999,"REV_AT_EPOCH":55603,"BSTAR":0.00026707368,"MEAN_MOTION_DOT":0.00014056,"MEAN_MOTION_DDOT":0},{"OBJECT_NAME":"POISK","OBJECT_ID":"2009-060A","EPOCH":"2026-03-07T18:30:03.892896","MEAN_MOTION":15.4851426,"ECCENTRICITY":0.00081173,"INCLINATION":51.632,"RA_OF_ASC_NODE":81.8427,"ARG_OF_PERICENTER":167.9196,"MEAN_ANOMALY":192.1989,"EPHEMERIS_TYPE":0,"CLASSIFICATION_TYPE":"U","NORAD_CAT_ID":36086,"ELEMENT_SET_NO":999,"REV_AT_EPOCH":55444,"BSTAR":0.00026707368,"MEAN_MOTION_DOT":0.00014056,"MEAN_MOTION_DDOT":0},{"OBJECT_NAME":"CSS (TIANHE)","OBJECT_ID":"2021-035A","EPOCH":"2026-03-08T01:14:30.124320","MEAN_MOTION":15.60561665,"ECCENTRICITY":0.0007,"INCLINATION":41.4663,"RA_OF_ASC_NODE":218.1268,"ARG_OF_PERICENTER":262.9146,"MEAN_ANOMALY":97.0897,"EPHEMERIS_TYPE":0,"CLASSIFICATION_TYPE":"U","NORAD_CAT_ID":48274,"ELEMENT_SET_NO":999,"REV_AT_EPOCH":27735,"BSTAR":0.00033952,"MEAN_MOTION_DOT":0.00028649,"MEAN_MOTION_DDOT":0},{"OBJECT_NAME":"ISS (NAUKA)","OBJECT_ID":"2021-066A","EPOCH":"2026-03-07T18:30:03.892896","MEAN_MOTION":15.4851426,"ECCENTRICITY":0.00081173,"INCLINATION":51.632,"RA_OF_ASC_NODE":81.8427,"ARG_OF_PERICENTER":167.9196,"MEAN_ANOMALY":192.1989,"EPHEMERIS_TYPE":0,"CLASSIFICATION_TYPE":"U","NORAD_CAT_ID":49044,"ELEMENT_SET_NO":999,"REV_AT_EPOCH":55445,"BSTAR":0.00026707368,"MEAN_MOTION_DOT":0.00014056,"MEAN_MOTION_DDOT":0},{"OBJECT_NAME":"FREGAT DEB","OBJECT_ID":"2011-037PF","EPOCH":"2026-03-05T23:25:04.037088","MEAN_MOTION":12.39967329,"ECCENTRICITY":0.09571042,"INCLINATION":51.6493,"RA_OF_ASC_NODE":311.8987,"ARG_OF_PERICENTER":50.8853,"MEAN_ANOMALY":317.3235,"EPHEMERIS_TYPE":0,"CLASSIFICATION_TYPE":"U","NORAD_CAT_ID":49271,"ELEMENT_SET_NO":999,"REV_AT_EPOCH":21223,"BSTAR":0.041642496,"MEAN_MOTION_DOT":0.00028561,"MEAN_MOTION_DDOT":0},{"OBJECT_NAME":"CSS (WENTIAN)","OBJECT_ID":"2022-085A","EPOCH":"2026-03-08T01:14:30.124320","MEAN_MOTION":15.60561665,"ECCENTRICITY":0.0007,"INCLINATION":41.4663,"RA_OF_ASC_NODE":218.1268,"ARG_OF_PERICENTER":262.9146,"MEAN_ANOMALY":97.0897,"EPHEMERIS_TYPE":0,"CLASSIFICATION_TYPE":"U","NORAD_CAT_ID":53239,"ELEMENT_SET_NO":999,"REV_AT_EPOCH":27704,"BSTAR":0.00033952,"MEAN_MOTION_DOT":0.00028649,"MEAN_MOTION_DDOT":0},{"OBJECT_NAME":"CSS (MENGTIAN)","OBJECT_ID":"2022-143A","EPOCH":"2026-03-08T01:14:30.124320","MEAN_MOTION":15.60561665,"ECCENTRICITY":0.0007,"INCLINATION":41.4663,"RA_OF_ASC_NODE":218.1268,"ARG_OF_PERICENTER":262.9146,"MEAN_ANOMALY":97.0897,"EPHEMERIS_TYPE":0,"CLASSIFICATION_TYPE":"U","NORAD_CAT_ID":54216,"ELEMENT_SET_NO":999,"REV_AT_EPOCH":27701,"BSTAR":0.00033952,"MEAN_MOTION_DOT":0.00028649,"MEAN_MOTION_DDOT":0},{"OBJECT_NAME":"PROGRESS-MS 31","OBJECT_ID":"2025-146A","EPOCH":"2026-03-07T18:30:03.892896","MEAN_MOTION":15.4851426,"ECCENTRICITY":0.00081173,"INCLINATION":51.632,"RA_OF_ASC_NODE":81.8427,"ARG_OF_PERICENTER":167.9196,"MEAN_ANOMALY":192.1989,"EPHEMERIS_TYPE":0,"CLASSIFICATION_TYPE":"U","NORAD_CAT_ID":64751,"ELEMENT_SET_NO":999,"REV_AT_EPOCH":55446,"BSTAR":0.00026707368,"MEAN_MOTION_DOT":0.00014056,"MEAN_MOTION_DDOT":0},{"OBJECT_NAME":"TIANZHOU-9","OBJECT_ID":"2025-149A","EPOCH":"2026-03-08T01:14:30.124320","MEAN_MOTION":15.60561665,"ECCENTRICITY":0.0007,"INCLINATION":41.4663,"RA_OF_ASC_NODE":218.1268,"ARG_OF_PERICENTER":262.9146,"MEAN_ANOMALY":97.0897,"EPHEMERIS_TYPE":0,"CLASSIFICATION_TYPE":"U","NORAD_CAT_ID":64786,"ELEMENT_SET_NO":999,"REV_AT_EPOCH":27702,"BSTAR":0.00033952,"MEAN_MOTION_DOT":0.00028649,"MEAN_MOTION_DDOT":0},{"OBJECT_NAME":"PROGRESS-MS 32","OBJECT_ID":"2025-204A","EPOCH":"2026-03-07T18:30:03.892896","MEAN_MOTION":15.4851426,"ECCENTRICITY":0.00081173,"INCLINATION":51.632,"RA_OF_ASC_NODE":81.8427,"ARG_OF_PERICENTER":167.9196,"MEAN_ANOMALY":192.1989,"EPHEMERIS_TYPE":0,"CLASSIFICATION_TYPE":"U","NORAD_CAT_ID":65586,"ELEMENT_SET_NO":999,"REV_AT_EPOCH":55450,"BSTAR":0.00026707368,"MEAN_MOTION_DOT":0.00014056,"MEAN_MOTION_DDOT":0},{"OBJECT_NAME":"CYGNUS NG-23","OBJECT_ID":"2025-208A","EPOCH":"2026-03-07T18:30:03.892896","MEAN_MOTION":15.4851426,"ECCENTRICITY":0.00081173,"INCLINATION":51.632,"RA_OF_ASC_NODE":81.8427,"ARG_OF_PERICENTER":167.9196,"MEAN_ANOMALY":192.1989,"EPHEMERIS_TYPE":0,"CLASSIFICATION_TYPE":"U","NORAD_CAT_ID":65616,"ELEMENT_SET_NO":999,"REV_AT_EPOCH":55451,"BSTAR":0.00026707368,"MEAN_MOTION_DOT":0.00014056,"MEAN_MOTION_DDOT":0},{"OBJECT_NAME":"ISS OBJECT XK","OBJECT_ID":"1998-067XK","EPOCH":"2026-03-08T03:31:16.792896","MEAN_MOTION":16.20157141,"ECCENTRICITY":0.0002982,"INCLINATION":51.6122,"RA_OF_ASC_NODE":54.1421,"ARG_OF_PERICENTER":121.8749,"MEAN_ANOMALY":238.256,"EPHEMERIS_TYPE":0,"CLASSIFICATION_TYPE":"U","NORAD_CAT_ID":65731,"ELEMENT_SET_NO":999,"REV_AT_EPOCH":2665,"BSTAR":0.0014141,"MEAN_MOTION_DOT":0.02850871,"MEAN_MOTION_DDOT":1.1852e-5},{"OBJECT_NAME":"YOTSUBA-KULOVER","OBJECT_ID":"1998-067XN","EPOCH":"2026-03-07T23:57:18.245376","MEAN_MOTION":15.79713118,"ECCENTRICITY":0.00057511,"INCLINATION":51.6208,"RA_OF_ASC_NODE":66.0612,"ARG_OF_PERICENTER":56.1865,"MEAN_ANOMALY":303.9683,"EPHEMERIS_TYPE":0,"CLASSIFICATION_TYPE":"U","NORAD_CAT_ID":65941,"ELEMENT_SET_NO":999,"REV_AT_EPOCH":2323,"BSTAR":0.0013632217,"MEAN_MOTION_DOT":0.00263045,"MEAN_MOTION_DDOT":0},{"OBJECT_NAME":"E-KAGAKU-1","OBJECT_ID":"1998-067XQ","EPOCH":"2026-03-08T00:03:11.699136","MEAN_MOTION":15.79385798,"ECCENTRICITY":0.0006105,"INCLINATION":51.6232,"RA_OF_ASC_NODE":66.1066,"ARG_OF_PERICENTER":62.9962,"MEAN_ANOMALY":297.1662,"EPHEMERIS_TYPE":0,"CLASSIFICATION_TYPE":"U","NORAD_CAT_ID":65943,"ELEMENT_SET_NO":999,"REV_AT_EPOCH":2323,"BSTAR":0.0013328,"MEAN_MOTION_DOT":0.00253093,"MEAN_MOTION_DDOT":0},{"OBJECT_NAME":"HRC MONOBLOCK CAMERA","OBJECT_ID":"1998-067XR","EPOCH":"2026-03-08T00:53:20.427072","MEAN_MOTION":15.61987502,"ECCENTRICITY":0.0003626,"INCLINATION":51.627,"RA_OF_ASC_NODE":73.8727,"ARG_OF_PERICENTER":83.9144,"MEAN_ANOMALY":276.2263,"EPHEMERIS_TYPE":0,"CLASSIFICATION_TYPE":"U","NORAD_CAT_ID":66052,"ELEMENT_SET_NO":999,"REV_AT_EPOCH":2213,"BSTAR":0.00078141,"MEAN_MOTION_DOT":0.00069622,"MEAN_MOTION_DDOT":0},{"OBJECT_NAME":"HTV-X1","OBJECT_ID":"2025-241A","EPOCH":"2026-03-07T18:30:03.892896","MEAN_MOTION":15.4851426,"ECCENTRICITY":0.00081173,"INCLINATION":51.632,"RA_OF_ASC_NODE":81.8427,"ARG_OF_PERICENTER":167.9196,"MEAN_ANOMALY":192.1989,"EPHEMERIS_TYPE":0,"CLASSIFICATION_TYPE":"U","NORAD_CAT_ID":66174,"ELEMENT_SET_NO":999,"REV_AT_EPOCH":55447,"BSTAR":0.00026707368,"MEAN_MOTION_DOT":0.00014056,"MEAN_MOTION_DDOT":0}]
